[{"OBJECT_NAME":"STARLINK-5522","OBJECT_ID":"2023-064BC","EPOCH":"2026-03-09T11:43:29.094816","MEAN_MOTION":14.98324957,"ECCENTRICITY":0.0002967,"INCLINATION":69.9996,"RA_OF_ASC_NODE":104.9153,"ARG_OF_PERICENTER":262.7845,"MEAN_ANOMALY":97.2977,"EPHEMERIS_TYPE":0,"CLASSIFICATION_TYPE":"U","NORAD_CAT_ID":56498,"ELEMENT_SET_NO":999,"REV_AT_EPOCH":15620,"BSTAR":-7.7807843e-5,"MEAN_MOTION_DOT":-1.021e-5,"MEAN_MOTION_DDOT":0},{"OBJECT_NAME":"FENGYUN 1C DEB","OBJECT_ID":"1999-025AKL","EPOCH":"2026-03-09T14:47:46.011264","MEAN_MOTION":14.88806868,"ECCENTRICITY":0.0088849,"INCLINATION":98.9015,"RA_OF_ASC_NODE":300.2677,"ARG_OF_PERICENTER":245.5096,"MEAN_ANOMALY":169.9787,"EPHEMERIS_TYPE":0,"CLASSIFICATION_TYPE":"U","NORAD_CAT_ID":30546,"ELEMENT_SET_NO":999,"REV_AT_EPOCH":1749,"BSTAR":0.00087367,"MEAN_MOTION_DOT":8.737e-5,"MEAN_MOTION_DDOT":0}]
